{
  "type": "FeatureCollection",
  "features": [
    {
      "type": "Feature",
      "properties": {
        "norad_id": 66940,
        "name": "STARLINK-36121",
        "group": "last-30-days",
        "lat": -28.301958983176025,
        "lon": 0.20188154266263658,
        "alt_km": 321.6399084997438,
        "timestamp": "2025-12-17T23:38:05.626872+00:00",
        "meta_object_name": "STARLINK-36121",
        "meta_object_id": "2025-286R",
        "meta_epoch": "2025-12-17T14:00:03.000384",
        "meta_mean_motion": 15.85694119,
        "meta_eccentricity": 9.268e-05,
        "meta_inclination": 53.1555,
        "meta_ra_of_asc_node": 26.0424,
        "meta_arg_of_pericenter": 68.6583,
        "meta_mean_anomaly": 123.1287,
        "meta_ephemeris_type": 0,
        "meta_classification_type": "U",
        "meta_norad_cat_id": 66940,
        "meta_element_set_no": 999,
        "meta_rev_at_epoch": 277,
        "meta_bstar": -0.0062327379,
        "meta_mean_motion_dot": -0.0135532,
        "meta_mean_motion_ddot": 0,
        "tle_line1": "1 66940U 25286R   25351.58336806 -.01355320  00000+0 -62327-2 0  9995",
        "tle_line2": "2 66940  53.1555  26.0424 0000926  68.6583 123.1287 15.85694119  2771"
      },
      "geometry": {
        "type": "Point",
        "coordinates": [
          0.20188154266263658,
          -28.301958983176025
        ]
      }
    },
    {
      "type": "Feature",
      "properties": {
        "norad_id": 66941,
        "name": "STARLINK-36088",
        "group": "last-30-days",
        "lat": -31.35484391854378,
        "lon": -3.1615393850952445,
        "alt_km": 321.9773616190205,
        "timestamp": "2025-12-17T23:38:05.626882+00:00",
        "meta_object_name": "STARLINK-36088",
        "meta_object_id": "2025-286S",
        "meta_epoch": "2025-12-17T14:00:03.000384",
        "meta_mean_motion": 15.85655521,
        "meta_eccentricity": 0.00010497,
        "meta_inclination": 53.1556,
        "meta_ra_of_asc_node": 26.051,
        "meta_arg_of_pericenter": 65.8084,
        "meta_mean_anomaly": 121.7922,
        "meta_ephemeris_type": 0,
        "meta_classification_type": "U",
        "meta_norad_cat_id": 66941,
        "meta_element_set_no": 999,
        "meta_rev_at_epoch": 277,
        "meta_bstar": -0.0061635168,
        "meta_mean_motion_dot": -0.01339995,
        "meta_mean_motion_ddot": 0,
        "tle_line1": "1 66941U 25286S   25351.58336806 -.01339995  00000+0 -61635-2 0  9997",
        "tle_line2": "2 66941  53.1556  26.0510 0001049  65.8084 121.7922 15.85655521  2775"
      },
      "geometry": {
        "type": "Point",
        "coordinates": [
          -3.1615393850952445,
          -31.35484391854378
        ]
      }
    },
    {
      "type": "Feature",
      "properties": {
        "norad_id": 66942,
        "name": "STARLINK-36100",
        "group": "last-30-days",
        "lat": -26.71589500873974,
        "lon": 1.8398425084742789,
        "alt_km": 321.5123035185816,
        "timestamp": "2025-12-17T23:38:05.626892+00:00",
        "meta_object_name": "STARLINK-36100",
        "meta_object_id": "2025-286T",
        "meta_epoch": "2025-12-17T14:00:03.000384",
        "meta_mean_motion": 15.85714556,
        "meta_eccentricity": 8.645e-05,
        "meta_inclination": 53.1555,
        "meta_ra_of_asc_node": 26.0378,
        "meta_arg_of_pericenter": 73.8015,
        "meta_mean_anomaly": 120.1183,
        "meta_ephemeris_type": 0,
        "meta_classification_type": "U",
        "meta_norad_cat_id": 66942,
        "meta_element_set_no": 999,
        "meta_rev_at_epoch": 270,
        "meta_bstar": -0.0062811455,
        "meta_mean_motion_dot": -0.01365668,
        "meta_mean_motion_ddot": 0,
        "tle_line1": "1 66942U 25286T   25351.58336806 -.01365668  00000+0 -62811-2 0  9991",
        "tle_line2": "2 66942  53.1555  26.0378 0000864  73.8015 120.1183 15.85714556  2703"
      },
      "geometry": {
        "type": "Point",
        "coordinates": [
          1.8398425084742789,
          -26.71589500873974
        ]
      }
    },
    {
      "type": "Feature",
      "properties": {
        "norad_id": 66943,
        "name": "STARLINK-36109",
        "group": "last-30-days",
        "lat": -24.881917208922744,
        "lon": 3.655317564540759,
        "alt_km": 321.34976938236196,
        "timestamp": "2025-12-17T23:38:05.626903+00:00",
        "meta_object_name": "STARLINK-36109",
        "meta_object_id": "2025-286U",
        "meta_epoch": "2025-12-17T14:00:03.000384",
        "meta_mean_motion": 15.85718349,
        "meta_eccentricity": 9.045e-05,
        "meta_inclination": 53.1553,
        "meta_ra_of_asc_node": 26.0326,
        "meta_arg_of_pericenter": 70.4379,
        "meta_mean_anomaly": 125.9441,
        "meta_ephemeris_type": 0,
        "meta_classification_type": "U",
        "meta_norad_cat_id": 66943,
        "meta_element_set_no": 999,
        "meta_rev_at_epoch": 270,
        "meta_bstar": -0.0063166113,
        "meta_mean_motion_dot": -0.01372647,
        "meta_mean_motion_ddot": 0,
        "tle_line1": "1 66943U 25286U   25351.58336806 -.01372647  00000+0 -63166-2 0  9991",
        "tle_line2": "2 66943  53.1553  26.0326 0000904  70.4379 125.9441 15.85718349  2700"
      },
      "geometry": {
        "type": "Point",
        "coordinates": [
          3.655317564540759,
          -24.881917208922744
        ]
      }
    },
    {
      "type": "Feature",
      "properties": {
        "norad_id": 66944,
        "name": "STARLINK-36112",
        "group": "last-30-days",
        "lat": -23.33204444742014,
        "lon": 5.132052007931726,
        "alt_km": 321.1630241943758,
        "timestamp": "2025-12-17T23:38:05.626913+00:00",
        "meta_object_name": "STARLINK-36112",
        "meta_object_id": "2025-286V",
        "meta_epoch": "2025-12-17T14:00:03.000384",
        "meta_mean_motion": 15.85735579,
        "meta_eccentricity": 9.973e-05,
        "meta_inclination": 53.1553,
        "meta_ra_of_asc_node": 26.0284,
        "meta_arg_of_pericenter": 68.9378,
        "meta_mean_anomaly": 129.4784,
        "meta_ephemeris_type": 0,
        "meta_classification_type": "U",
        "meta_norad_cat_id": 66944,
        "meta_element_set_no": 999,
        "meta_rev_at_epoch": 277,
        "meta_bstar": -0.0063087976,
        "meta_mean_motion_dot": -0.01372243,
        "meta_mean_motion_ddot": 0,
        "tle_line1": "1 66944U 25286V   25351.58336806 -.01372243  00000+0 -63088-2 0  9997",
        "tle_line2": "2 66944  53.1553  26.0284 0000997  68.9378 129.4784 15.85735579  2777"
      },
      "geometry": {
        "type": "Point",
        "coordinates": [
          5.132052007931726,
          -23.33204444742014
        ]
      }
    },
    {
      "type": "Feature",
      "properties": {
        "norad_id": 66945,
        "name": "STARLINK-36110",
        "group": "last-30-days",
        "lat": -21.496571671453534,
        "lon": 6.820608225717813,
        "alt_km": 321.0081968882005,
        "timestamp": "2025-12-17T23:38:05.626925+00:00",
        "meta_object_name": "STARLINK-36110",
        "meta_object_id": "2025-286W",
        "meta_epoch": "2025-12-17T14:00:03.000384",
        "meta_mean_motion": 15.85742777,
        "meta_eccentricity": 9.646e-05,
        "meta_inclination": 53.1551,
        "meta_ra_of_asc_node": 26.0232,
        "meta_arg_of_pericenter": 70.716,
        "meta_mean_anomaly": 130.1097,
        "meta_ephemeris_type": 0,
        "meta_classification_type": "U",
        "meta_norad_cat_id": 66945,
        "meta_element_set_no": 999,
        "meta_rev_at_epoch": 277,
        "meta_bstar": -0.0063493365,
        "meta_mean_motion_dot": -0.01380331,
        "meta_mean_motion_ddot": 0,
        "tle_line1": "1 66945U 25286W   25351.58336806 -.01380331  00000+0 -63493-2 0  9995",
        "tle_line2": "2 66945  53.1551  26.0232 0000964  70.7160 130.1097 15.85742777  2777"
      },
      "geometry": {
        "type": "Point",
        "coordinates": [
          6.820608225717813,
          -21.496571671453534
        ]
      }
    },
    {
      "type": "Feature",
      "properties": {
        "norad_id": 66946,
        "name": "STARLINK-36115",
        "group": "last-30-days",
        "lat": -19.836844578043983,
        "lon": 8.298652721485205,
        "alt_km": 320.82924969009036,
        "timestamp": "2025-12-17T23:38:05.626935+00:00",
        "meta_object_name": "STARLINK-36115",
        "meta_object_id": "2025-286X",
        "meta_epoch": "2025-12-17T14:00:03.000384",
        "meta_mean_motion": 15.85760472,
        "meta_eccentricity": 0.00010096,
        "meta_inclination": 53.1552,
        "meta_ra_of_asc_node": 26.0188,
        "meta_arg_of_pericenter": 70.734,
        "meta_mean_anomaly": 132.2362,
        "meta_ephemeris_type": 0,
        "meta_classification_type": "U",
        "meta_norad_cat_id": 66946,
        "meta_element_set_no": 999,
        "meta_rev_at_epoch": 277,
        "meta_bstar": -0.0063800642,
        "meta_mean_motion_dot": -0.01387232,
        "meta_mean_motion_ddot": 0,
        "tle_line1": "1 66946U 25286X   25351.58336806 -.01387232  00000+0 -63801-2 0  9996",
        "tle_line2": "2 66946  53.1552  26.0188 0001009  70.7340 132.2362 15.85760472  2770"
      },
      "geometry": {
        "type": "Point",
        "coordinates": [
          8.298652721485205,
          -19.836844578043983
        ]
      }
    }
  ]
}